{
  "type": "FeatureCollection",
  "features": [
    {
      "type": "Feature",
      "properties": {
        "norad_id": 55973,
        "name": "TIANMU-1 03",
        "group": "weather",
        "lat": -82.04916545231592,
        "lon": -149.31638069822148,
        "alt_km": 455.1119430753106,
        "timestamp": "2025-12-03T10:52:57.090388+00:00",
        "meta_object_name": "TIANMU-1 03",
        "meta_object_id": "2023-039A",
        "meta_epoch": "2025-12-03T05:01:33.213216",
        "meta_mean_motion": 15.4048723,
        "meta_eccentricity": 0.0004563,
        "meta_inclination": 97.5101,
        "meta_ra_of_asc_node": 139.5977,
        "meta_arg_of_pericenter": 88.6663,
        "meta_mean_anomaly": 271.5106,
        "meta_ephemeris_type": 0,
        "meta_classification_type": "U",
        "meta_norad_cat_id": 55973,
        "meta_element_set_no": 999,
        "meta_rev_at_epoch": 15059,
        "meta_bstar": 0.00049114,
        "meta_mean_motion_dot": 0.00019858,
        "meta_mean_motion_ddot": 0,
        "tle_line1": "1 55973U 23039A   25337.20941219  .00019858  00000+0  49114-3 0  9996",
        "tle_line2": "2 55973  97.5101 139.5977 0004563  88.6663 271.5106 15.40487230150596"
      },
      "geometry": {
        "type": "Point",
        "coordinates": [
          -149.31638069822148,
          -82.04916545231592
        ]
      }
    },
    {
      "type": "Feature",
      "properties": {
        "norad_id": 55974,
        "name": "TIANMU-1 04",
        "group": "weather",
        "lat": 15.148092754151714,
        "lon": 136.99829572221302,
        "alt_km": 443.28913439644657,
        "timestamp": "2025-12-03T10:52:57.090399+00:00",
        "meta_object_name": "TIANMU-1 04",
        "meta_object_id": "2023-039B",
        "meta_epoch": "2025-12-03T04:34:54.924672",
        "meta_mean_motion": 15.40816361,
        "meta_eccentricity": 0.0005233,
        "meta_inclination": 97.5033,
        "meta_ra_of_asc_node": 138.7737,
        "meta_arg_of_pericenter": 84.7043,
        "meta_mean_anomaly": 275.4801,
        "meta_ephemeris_type": 0,
        "meta_classification_type": "U",
        "meta_norad_cat_id": 55974,
        "meta_element_set_no": 999,
        "meta_rev_at_epoch": 15059,
        "meta_bstar": 0.00050051,
        "meta_mean_motion_dot": 0.00020464,
        "meta_mean_motion_ddot": 0,
        "tle_line1": "1 55974U 23039B   25337.19091348  .00020464  00000+0  50051-3 0  9991",
        "tle_line2": "2 55974  97.5033 138.7737 0005233  84.7043 275.4801 15.40816361150596"
      },
      "geometry": {
        "type": "Point",
        "coordinates": [
          136.99829572221302,
          15.148092754151714
        ]
      }
    },
    {
      "type": "Feature",
      "properties": {
        "norad_id": 55975,
        "name": "TIANMU-1 05",
        "group": "weather",
        "lat": 58.95194271499707,
        "lon": 126.88012216649992,
        "alt_km": 437.00078106339333,
        "timestamp": "2025-12-03T10:52:57.090410+00:00",
        "meta_object_name": "TIANMU-1 05",
        "meta_object_id": "2023-039C",
        "meta_epoch": "2025-12-03T04:23:16.725408",
        "meta_mean_motion": 15.4044512,
        "meta_eccentricity": 0.0004319,
        "meta_inclination": 97.5079,
        "meta_ra_of_asc_node": 139.2573,
        "meta_arg_of_pericenter": 105.3297,
        "meta_mean_anomaly": 254.8427,
        "meta_ephemeris_type": 0,
        "meta_classification_type": "U",
        "meta_norad_cat_id": 55975,
        "meta_element_set_no": 999,
        "meta_rev_at_epoch": 15057,
        "meta_bstar": 0.00049671,
        "meta_mean_motion_dot": 0.00020057,
        "meta_mean_motion_ddot": 0,
        "tle_line1": "1 55975U 23039C   25337.18283247  .00020057  00000+0  49671-3 0  9996",
        "tle_line2": "2 55975  97.5079 139.2573 0004319 105.3297 254.8427 15.40445120150570"
      },
      "geometry": {
        "type": "Point",
        "coordinates": [
          126.88012216649992,
          58.95194271499707
        ]
      }
    },
    {
      "type": "Feature",
      "properties": {
        "norad_id": 55976,
        "name": "TIANMU-1 06",
        "group": "weather",
        "lat": 1.45146028876266,
        "lon": 139.8011366414679,
        "alt_km": 446.89756526042584,
        "timestamp": "2025-12-03T10:52:57.090420+00:00",
        "meta_object_name": "TIANMU-1 06",
        "meta_object_id": "2023-039D",
        "meta_epoch": "2025-12-03T04:38:30.888384",
        "meta_mean_motion": 15.40869491,
        "meta_eccentricity": 0.0004661,
        "meta_inclination": 97.509,
        "meta_ra_of_asc_node": 139.7255,
        "meta_arg_of_pericenter": 100.9149,
        "meta_mean_anomaly": 259.2621,
        "meta_ephemeris_type": 0,
        "meta_classification_type": "U",
        "meta_norad_cat_id": 55976,
        "meta_element_set_no": 999,
        "meta_rev_at_epoch": 15059,
        "meta_bstar": 0.00049987,
        "meta_mean_motion_dot": 0.00020472,
        "meta_mean_motion_ddot": 0,
        "tle_line1": "1 55976U 23039D   25337.19341306  .00020472  00000+0  49987-3 0  9990",
        "tle_line2": "2 55976  97.5090 139.7255 0004661 100.9149 259.2621 15.40869491150591"
      },
      "geometry": {
        "type": "Point",
        "coordinates": [
          139.8011366414679,
          1.45146028876266
        ]
      }
    },
    {
      "type": "Feature",
      "properties": {
        "norad_id": 56232,
        "name": "FENGYUN 3G",
        "group": "weather",
        "lat": -28.038425282349714,
        "lon": -111.22496522854006,
        "alt_km": 416.86828907459403,
        "timestamp": "2025-12-03T10:52:57.090443+00:00",
        "meta_object_name": "FENGYUN 3G",
        "meta_object_id": "2023-055A",
        "meta_epoch": "2025-12-03T04:52:02.790048",
        "meta_mean_motion": 15.52761561,
        "meta_eccentricity": 0.0009248,
        "meta_inclination": 49.9947,
        "meta_ra_of_asc_node": 276.6369,
        "meta_arg_of_pericenter": 102.5547,
        "meta_mean_anomaly": 257.6455,
        "meta_ephemeris_type": 0,
        "meta_classification_type": "U",
        "meta_norad_cat_id": 56232,
        "meta_element_set_no": 999,
        "meta_rev_at_epoch": 14954,
        "meta_bstar": 0.00064,
        "meta_mean_motion_dot": 0.00040173,
        "meta_mean_motion_ddot": 0,
        "tle_line1": "1 56232U 23055A   25337.20281007  .00040173  00000+0  64000-3 0  9990",
        "tle_line2": "2 56232  49.9947 276.6369 0009248 102.5547 257.6455 15.52761561149544"
      },
      "geometry": {
        "type": "Point",
        "coordinates": [
          -111.22496522854006,
          -28.038425282349714
        ]
      }
    },
    {
      "type": "Feature",
      "properties": {
        "norad_id": 57166,
        "name": "METEOR-M2 3",
        "group": "weather",
        "lat": -8.153369280344286,
        "lon": -150.0936590711372,
        "alt_km": 818.5622963254373,
        "timestamp": "2025-12-03T10:52:57.090456+00:00",
        "meta_object_name": "METEOR-M2 3",
        "meta_object_id": "2023-091A",
        "meta_epoch": "2025-12-03T04:56:35.200608",
        "meta_mean_motion": 14.24024185,
        "meta_eccentricity": 0.0004413,
        "meta_inclination": 98.6393,
        "meta_ra_of_asc_node": 30.9113,
        "meta_arg_of_pericenter": 34.3019,
        "meta_mean_anomaly": 325.8444,
        "meta_ephemeris_type": 0,
        "meta_classification_type": "U",
        "meta_norad_cat_id": 57166,
        "meta_element_set_no": 999,
        "meta_rev_at_epoch": 12662,
        "meta_bstar": 3.8962e-05,
        "meta_mean_motion_dot": 4.6e-07,
        "meta_mean_motion_ddot": 0,
        "tle_line1": "1 57166U 23091A   25337.20596297  .00000046  00000+0  38962-4 0  9991",
        "tle_line2": "2 57166  98.6393  30.9113 0004413  34.3019 325.8444 14.24024185126622"
      },
      "geometry": {
        "type": "Point",
        "coordinates": [
          -150.0936590711372,
          -8.153369280344286
        ]
      }
    },
    {
      "type": "Feature",
      "properties": {
        "norad_id": 57399,
        "name": "TIANMU-1 07",
        "group": "weather",
        "lat": 33.3238234519746,
        "lon": -147.66258636930704,
        "alt_km": 477.3815428882226,
        "timestamp": "2025-12-03T10:52:57.090470+00:00",
        "meta_object_name": "TIANMU-1 07",
        "meta_object_id": "2023-101A",
        "meta_epoch": "2025-12-03T03:57:26.927136",
        "meta_mean_motion": 15.27849331,
        "meta_eccentricity": 0.0005584,
        "meta_inclination": 97.2896,
        "meta_ra_of_asc_node": 27.2274,
        "meta_arg_of_pericenter": 105.789,
        "meta_mean_anomaly": 254.3966,
        "meta_ephemeris_type": 0,
        "meta_classification_type": "U",
        "meta_norad_cat_id": 57399,
        "meta_element_set_no": 999,
        "meta_rev_at_epoch": 13169,
        "meta_bstar": 0.00038114,
        "meta_mean_motion_dot": 0.00010299,
        "meta_mean_motion_ddot": 0,
        "tle_line1": "1 57399U 23101A   25337.16489499  .00010299  00000+0  38114-3 0  9990",
        "tle_line2": "2 57399  97.2896  27.2274 0005584 105.7890 254.3966 15.27849331131690"
      },
      "geometry": {
        "type": "Point",
        "coordinates": [
          -147.66258636930704,
          33.3238234519746
        ]
      }
    }
  ]
}